[{"OBJECT_NAME":"ONEWEB-0116","OBJECT_ID":"2021-025E","EPOCH":"2026-06-11T22:43:00.634368","MEAN_MOTION":13.13468986,"ECCENTRICITY":0.0001735,"INCLINATION":87.8956,"RA_OF_ASC_NODE":321.2607,"ARG_OF_PERICENTER":92.2534,"MEAN_ANOMALY":267.8794,"EPHEMERIS_TYPE":0,"CLASSIFICATION_TYPE":"U","NORAD_CAT_ID":48046,"ELEMENT_SET_NO":999,"REV_AT_EPOCH":25296,"BSTAR":-0.00011967999999999999,"MEAN_MOTION_DOT":-3.1e-07,"MEAN_MOTION_DDOT":0.0},{"OBJECT_NAME":"ONEWEB-0150","OBJECT_ID":"2021-025F","EPOCH":"2026-06-12T03:37:59.163744","MEAN_MOTION":13.1346932,"ECCENTRICITY":0.0002011,"INCLINATION":87.8957,"RA_OF_ASC_NODE":321.217,"ARG_OF_PERICENTER":93.97,"MEAN_ANOMALY":266.1659,"EPHEMERIS_TYPE":0,"CLASSIFICATION_TYPE":"U","NORAD_CAT_ID":48047,"ELEMENT_SET_NO":999,"REV_AT_EPOCH":25288,"BSTAR":-0.00081189,"MEAN_MOTION_DOT":-2.84e-06,"MEAN_MOTION_DDOT":0.0},{"OBJECT_NAME":"ONEWEB-0107","OBJECT_ID":"2021-025G","EPOCH":"2026-06-12T03:40:25.450176","MEAN_MOTION":13.1346913,"ECCENTRICITY":0.0001947,"INCLINATION":87.896,"RA_OF_ASC_NODE":321.2127,"ARG_OF_PERICENTER":102.5758,"MEAN_ANOMALY":257.5589,"EPHEMERIS_TYPE":0,"CLASSIFICATION_TYPE":"U","NORAD_CAT_ID":48048,"ELEMENT_SET_NO":999,"REV_AT_EPOCH":25286,"BSTAR":-0.0010092,"MEAN_MOTION_DOT":-3.56e-06,"MEAN_MOTION_DDOT":0.0},{"OBJECT_NAME":"ONEWEB-0101","OBJECT_ID":"2021-025H","EPOCH":"2026-06-12T04:36:29.651904","MEAN_MOTION":13.13470351,"ECCENTRICITY":0.0001732,"INCLINATION":87.8947,"RA_OF_ASC_NODE":321.2212,"ARG_OF_PERICENTER":100.2302,"MEAN_ANOMALY":259.9022,"EPHEMERIS_TYPE":0,"CLASSIFICATION_TYPE":"U","NORAD_CAT_ID":48049,"ELEMENT_SET_NO":999,"REV_AT_EPOCH":25284,"BSTAR":0.0008142000000000001,"MEAN_MOTION_DOT":3.1e-06,"MEAN_MOTION_DDOT":0.0},{"OBJECT_NAME":"ONEWEB-0113","OBJECT_ID":"2021-025J","EPOCH":"2026-06-11T23:44:53.655360","MEAN_MOTION":13.13894036,"ECCENTRICITY":0.0001833,"INCLINATION":87.8952,"RA_OF_ASC_NODE":321.1721,"ARG_OF_PERICENTER":92.7246,"MEAN_ANOMALY":267.4093,"EPHEMERIS_TYPE":0,"CLASSIFICATION_TYPE":"U","NORAD_CAT_ID":48050,"ELEMENT_SET_NO":999,"REV_AT_EPOCH":25292,"BSTAR":-0.00033787,"MEAN_MOTION_DOT":-1.11e-06,"MEAN_MOTION_DDOT":0.0},{"OBJECT_NAME":"ONEWEB-0112","OBJECT_ID":"2021-025K","EPOCH":"2026-06-12T03:47:44.160000","MEAN_MOTION":13.13469851,"ECCENTRICITY":0.0001723,"INCLINATION":87.8958,"RA_OF_ASC_NODE":321.2098,"ARG_OF_PERICENTER":103.2606,"MEAN_ANOMALY":256.8716,"EPHEMERIS_TYPE":0,"CLASSIFICATION_TYPE":"U","NORAD_CAT_ID":48051,"ELEMENT_SET_NO":999,"REV_AT_EPOCH":25293,"BSTAR":-0.0009866200000000001,"MEAN_MOTION_DOT":-3.48e-06,"MEAN_MOTION_DDOT":0.0},{"OBJECT_NAME":"ONEWEB-0156","OBJECT_ID":"2021-025L","EPOCH":"2026-06-12T03:59:55.269024","MEAN_MOTION":13.13469884,"ECCENTRICITY":0.0001934,"INCLINATION":87.8957,"RA_OF_ASC_NODE":321.2182,"ARG_OF_PERICENTER":98.2394,"MEAN_ANOMALY":261.8954,"EPHEMERIS_TYPE":0,"CLASSIFICATION_TYPE":"U","NORAD_CAT_ID":48052,"ELEMENT_SET_NO":999,"REV_AT_EPOCH":25291,"BSTAR":-0.00089916,"MEAN_MOTION_DOT":-3.16e-06,"MEAN_MOTION_DDOT":0.0},{"OBJECT_NAME":"ONEWEB-0161","OBJECT_ID":"2021-025M","EPOCH":"2026-06-11T23:43:58.040544","MEAN_MOTION":13.13469921,"ECCENTRICITY":0.0001928,"INCLINATION":87.8957,"RA_OF_ASC_NODE":321.2547,"ARG_OF_PERICENTER":99.5203,"MEAN_ANOMALY":260.6144,"EPHEMERIS_TYPE":0,"CLASSIFICATION_TYPE":"U","NORAD_CAT_ID":48053,"ELEMENT_SET_NO":999,"REV_AT_EPOCH":25282,"BSTAR":-0.00029413000000000003,"MEAN_MOTION_DOT":-9.5e-07,"MEAN_MOTION_DDOT":0.0},{"OBJECT_NAME":"ONEWEB-0158","OBJECT_ID":"2021-025N","EPOCH":"2026-06-11T22:45:28.632384","MEAN_MOTION":13.13471495,"ECCENTRICITY":0.0001593,"INCLINATION":87.8956,"RA_OF_ASC_NODE":321.2602,"ARG_OF_PERICENTER":92.603,"MEAN_ANOMALY":267.5281,"EPHEMERIS_TYPE":0,"CLASSIFICATION_TYPE":"U","NORAD_CAT_ID":48054,"ELEMENT_SET_NO":999,"REV_AT_EPOCH":25294,"BSTAR":-0.00011116,"MEAN_MOTION_DOT":-2.8e-07,"MEAN_MOTION_DDOT":0.0},{"OBJECT_NAME":"ONEWEB-0157","OBJECT_ID":"2021-025P","EPOCH":"2026-06-12T03:01:26.089824","MEAN_MOTION":13.13469379,"ECCENTRICITY":0.0001967,"INCLINATION":87.8955,"RA_OF_ASC_NODE":321.2305,"ARG_OF_PERICENTER":106.4425,"MEAN_ANOMALY":253.692,"EPHEMERIS_TYPE":0,"CLASSIFICATION_TYPE":"U","NORAD_CAT_ID":48055,"ELEMENT_SET_NO":999,"REV_AT_EPOCH":25290,"BSTAR":0.00076384,"MEAN_MOTION_DOT":2.92e-06,"MEAN_MOTION_DDOT":0.0},{"OBJECT_NAME":"ONEWEB-0162","OBJECT_ID":"2021-025Q","EPOCH":"2026-06-12T04:16:47.597952","MEAN_MOTION":13.13470438,"ECCENTRICITY":0.0001983,"INCLINATION":87.8952,"RA_OF_ASC_NODE":321.2211,"ARG_OF_PERICENTER":94.5307,"MEAN_ANOMALY":265.6049,"EPHEMERIS_TYPE":0,"CLASSIFICATION_TYPE":"U","NORAD_CAT_ID":48056,"ELEMENT_SET_NO":999,"REV_AT_EPOCH":25288,"BSTAR":6.412400000000001e-05,"MEAN_MOTION_DOT":3.6e-07,"MEAN_MOTION_DDOT":0.0},{"OBJECT_NAME":"ONEWEB-0155","OBJECT_ID":"2021-025R","EPOCH":"2026-06-12T04:26:44.343744","MEAN_MOTION":13.13470285,"ECCENTRICITY":0.0001796,"INCLINATION":87.895,"RA_OF_ASC_NODE":321.2155,"ARG_OF_PERICENTER":102.2852,"MEAN_ANOMALY":257.8479,"EPHEMERIS_TYPE":0,"CLASSIFICATION_TYPE":"U","NORAD_CAT_ID":48057,"ELEMENT_SET_NO":999,"REV_AT_EPOCH":25302,"BSTAR":0.00057585,"MEAN_MOTION_DOT":2.23e-06,"MEAN_MOTION_DDOT":0.0},{"OBJECT_NAME":"ONEWEB-0149","OBJECT_ID":"2021-025S","EPOCH":"2026-06-12T03:08:44.583648","MEAN_MOTION":13.13469566,"ECCENTRICITY":0.0002019,"INCLINATION":87.8956,"RA_OF_ASC_NODE":321.2299,"ARG_OF_PERICENTER":93.6154,"MEAN_ANOMALY":266.5206,"EPHEMERIS_TYPE":0,"CLASSIFICATION_TYPE":"U","NORAD_CAT_ID":48058,"ELEMENT_SET_NO":999,"REV_AT_EPOCH":25282,"BSTAR":0.00057339,"MEAN_MOTION_DOT":2.22e-06,"MEAN_MOTION_DDOT":0.0},{"OBJECT_NAME":"ONEWEB-0148","OBJECT_ID":"2021-025T","EPOCH":"2026-06-12T04:04:47.942976","MEAN_MOTION":13.13469895,"ECCENTRICITY":0.0002416,"INCLINATION":87.895,"RA_OF_ASC_NODE":321.2295,"ARG_OF_PERICENTER":95.3659,"MEAN_ANOMALY":264.7746,"EPHEMERIS_TYPE":0,"CLASSIFICATION_TYPE":"U","NORAD_CAT_ID":48059,"ELEMENT_SET_NO":999,"REV_AT_EPOCH":25295,"BSTAR":-0.00066045,"MEAN_MOTION_DOT":-2.28e-06,"MEAN_MOTION_DDOT":0.0},{"OBJECT_NAME":"ONEWEB-0160","OBJECT_ID":"2021-025U","EPOCH":"2026-06-12T04:29:10.599072","MEAN_MOTION":13.13471434,"ECCENTRICITY":0.000154,"INCLINATION":87.8949,"RA_OF_ASC_NODE":321.2222,"ARG_OF_PERICENTER":71.8925,"MEAN_ANOMALY":288.2372,"EPHEMERIS_TYPE":0,"CLASSIFICATION_TYPE":"U","NORAD_CAT_ID":48060,"ELEMENT_SET_NO":999,"REV_AT_EPOCH":25290,"BSTAR":0.00057544,"MEAN_MOTION_DOT":2.23e-06,"MEAN_MOTION_DDOT":0.0},{"OBJECT_NAME":"ONEWEB-0163","OBJECT_ID":"2021-025V","EPOCH":"2026-06-12T04:07:13.738656","MEAN_MOTION":13.13470622,"ECCENTRICITY":0.0001921,"INCLINATION":87.8956,"RA_OF_ASC_NODE":321.2193,"ARG_OF_PERICENTER":104.7153,"MEAN_ANOMALY":255.4189,"EPHEMERIS_TYPE":0,"CLASSIFICATION_TYPE":"U","NORAD_CAT_ID":48061,"ELEMENT_SET_NO":999,"REV_AT_EPOCH":25302,"BSTAR":-0.00069489,"MEAN_MOTION_DOT":-2.41e-06,"MEAN_MOTION_DDOT":0.0}]